NOAA 17                 
1 27453U 02032A   26067.20250118  .00000367  00000+0  17225-3 0  9993
2 27453  98.8540  31.8164 0010606 286.5323  73.4691 14.26188532232593
NOAA 18                 
1 28654U 05018A   26067.12630165  .00000092  00000+0  71578-4 0  9996
2 28654  98.8158 148.2555 0015300  79.6125 280.6771 14.13710520 72032
NOAA 19                 
1 33591U 09005A   26067.17800017  .00000070  00000+0  60943-4 0  9992
2 33591  98.9609 137.9465 0012951 319.2576  40.7626 14.13456419880212
SUOMI NPP               
1 37849U 11061A   26067.12208587  .00000126  00000+0  80951-4 0  9999
2 37849  98.7868   8.7373 0000424 243.1699 116.9434 14.19543042744108
NOAA 20 (JPSS-1)        
1 43013U 17073A   26067.06626523  .00000156  00000+0  94996-4 0  9992
2 43013  98.7690   7.4696 0001149 140.3695 219.7565 14.19535761430124
NOAA 21 (JPSS-2)        
1 54234U 22150A   26067.10099091  .00000134  00000+0  84229-4 0  9994
2 54234  98.7553   7.3850 0002626 109.1051 251.0410 14.19551766172203
