[{"OBJECT_NAME":"NOAA 17","OBJECT_ID":"2002-032A","EPOCH":"2026-03-08T04:51:36.101952","MEAN_MOTION":14.26188532,"ECCENTRICITY":0.0010606,"INCLINATION":98.854,"RA_OF_ASC_NODE":31.8164,"ARG_OF_PERICENTER":286.5323,"MEAN_ANOMALY":73.4691,"EPHEMERIS_TYPE":0,"CLASSIFICATION_TYPE":"U","NORAD_CAT_ID":27453,"ELEMENT_SET_NO":999,"REV_AT_EPOCH":23259,"BSTAR":0.00017225,"MEAN_MOTION_DOT":3.67e-6,"MEAN_MOTION_DDOT":0},{"OBJECT_NAME":"NOAA 18","OBJECT_ID":"2005-018A","EPOCH":"2026-03-08T03:01:52.462560","MEAN_MOTION":14.1371052,"ECCENTRICITY":0.00153,"INCLINATION":98.8158,"RA_OF_ASC_NODE":148.2555,"ARG_OF_PERICENTER":79.6125,"MEAN_ANOMALY":280.6771,"EPHEMERIS_TYPE":0,"CLASSIFICATION_TYPE":"U","NORAD_CAT_ID":28654,"ELEMENT_SET_NO":999,"REV_AT_EPOCH":7203,"BSTAR":7.1578e-5,"MEAN_MOTION_DOT":9.2e-7,"MEAN_MOTION_DDOT":0},{"OBJECT_NAME":"NOAA 19","OBJECT_ID":"2009-005A","EPOCH":"2026-03-08T04:16:19.214688","MEAN_MOTION":14.13456419,"ECCENTRICITY":0.0012951,"INCLINATION":98.9609,"RA_OF_ASC_NODE":137.9465,"ARG_OF_PERICENTER":319.2576,"MEAN_ANOMALY":40.7626,"EPHEMERIS_TYPE":0,"CLASSIFICATION_TYPE":"U","NORAD_CAT_ID":33591,"ELEMENT_SET_NO":999,"REV_AT_EPOCH":88021,"BSTAR":6.0943e-5,"MEAN_MOTION_DOT":7.0e-7,"MEAN_MOTION_DDOT":0},{"OBJECT_NAME":"SUOMI NPP","OBJECT_ID":"2011-061A","EPOCH":"2026-03-08T02:55:48.219168","MEAN_MOTION":14.19543042,"ECCENTRICITY":4.24e-5,"INCLINATION":98.7868,"RA_OF_ASC_NODE":8.7373,"ARG_OF_PERICENTER":243.1699,"MEAN_ANOMALY":116.9434,"EPHEMERIS_TYPE":0,"CLASSIFICATION_TYPE":"U","NORAD_CAT_ID":37849,"ELEMENT_SET_NO":999,"REV_AT_EPOCH":74410,"BSTAR":8.0951e-5,"MEAN_MOTION_DOT":1.26e-6,"MEAN_MOTION_DDOT":0},{"OBJECT_NAME":"NOAA 20 (JPSS-1)","OBJECT_ID":"2017-073A","EPOCH":"2026-03-08T01:35:25.315872","MEAN_MOTION":14.19535761,"ECCENTRICITY":0.0001149,"INCLINATION":98.769,"RA_OF_ASC_NODE":7.4696,"ARG_OF_PERICENTER":140.3695,"MEAN_ANOMALY":219.7565,"EPHEMERIS_TYPE":0,"CLASSIFICATION_TYPE":"U","NORAD_CAT_ID":43013,"ELEMENT_SET_NO":999,"REV_AT_EPOCH":43012,"BSTAR":9.4996e-5,"MEAN_MOTION_DOT":1.56e-6,"MEAN_MOTION_DDOT":0},{"OBJECT_NAME":"NOAA 21 (JPSS-2)","OBJECT_ID":"2022-150A","EPOCH":"2026-03-08T02:25:25.614624","MEAN_MOTION":14.19551766,"ECCENTRICITY":0.0002626,"INCLINATION":98.7553,"RA_OF_ASC_NODE":7.385,"ARG_OF_PERICENTER":109.1051,"MEAN_ANOMALY":251.041,"EPHEMERIS_TYPE":0,"CLASSIFICATION_TYPE":"U","NORAD_CAT_ID":54234,"ELEMENT_SET_NO":999,"REV_AT_EPOCH":17220,"BSTAR":8.4229e-5,"MEAN_MOTION_DOT":1.34e-6,"MEAN_MOTION_DDOT":0}]
